start=new Date('2022-03-12T00:00:00.000Z').valueOf();
sats=[{"NORAD_CAT_ID":"45690","TIME_SYSTEM":"UTC","ARG_OF_PERICENTER":"66.1073","COUNTRY_CODE":"US","DECAY_DATE":null,"EPHEMERIS_TYPE":"0","EPOCH":"2022-03-11T20:15:58.970592","RCS_SIZE":"LARGE","MEAN_ELEMENT_THEORY":"SGP4","REV_AT_EPOCH":"9895","MEAN_MOTION_DDOT":"0.0000000000000","CLASSIFICATION_TYPE":"U","ELEMENT_SET_NO":"999","OBJECT_TYPE":"PAYLOAD","ECCENTRICITY":"0.00018390","OBJECT_NAME":"STARLINK-1414","FILE":"3355378","MEAN_ANOMALY":"294.0107","OBJECT_ID":"2020-035AK","APOAPSIS":"551.002","CENTER_NAME":"EARTH","GP_ID":"198516221","TLE_LINE2":"2 45690  52.9986 125.6412 0001839  66.1073 294.0107 15.05579991 98955","PERIOD":"95.644","BSTAR":"0.00019222000000","SITE":"AFETR","INCLINATION":"52.9986","REF_FRAME":"TEME","RA_OF_ASC_NODE":"125.6412","PERIAPSIS":"548.454","SEMIMAJOR_AXIS":"6927.863","MEAN_MOTION_DOT":"0.00002522","LAUNCH_DATE":"2020-06-04","TLE_LINE1":"1 45690U 20035AK  22070.84443253  .00002522  00000-0  19222-3 0  9998","MEAN_MOTION":"15.05579991"},{"SEMIMAJOR_AXIS":"6925.312","PERIAPSIS":"545.977","MEAN_MOTION_DOT":"0.00006035","LAUNCH_DATE":"2020-06-04","TLE_LINE1":"1 45691U 20035AL  22070.83689637  .00006035  00000-0  42357-3 0  9994","MEAN_MOTION":"15.06411974","OBJECT_NAME":"STARLINK-1415","FILE":"3355378","MEAN_ANOMALY":"305.3322","OBJECT_ID":"2020-035AL","APOAPSIS":"548.377","GP_ID":"198516471","CENTER_NAME":"EARTH","BSTAR":"0.00042357000000","TLE_LINE2":"2 45691  53.0515 125.6690 0001733  54.7828 305.3322 15.06411974 98994","PERIOD":"95.591","SITE":"AFETR","INCLINATION":"53.0515","REF_FRAME":"TEME","RA_OF_ASC_NODE":"125.6690","RCS_SIZE":"LARGE","MEAN_ELEMENT_THEORY":"SGP4","REV_AT_EPOCH":"9899","MEAN_MOTION_DDOT":"0.0000000000000","CLASSIFICATION_TYPE":"U","ELEMENT_SET_NO":"999","OBJECT_TYPE":"PAYLOAD","ECCENTRICITY":"0.00017330","NORAD_CAT_ID":"45691","TIME_SYSTEM":"UTC","ARG_OF_PERICENTER":"54.7828","COUNTRY_CODE":"US","DECAY_DATE":null,"EPHEMERIS_TYPE":"0","EPOCH":"2022-03-11T20:05:07.846368"},{"RCS_SIZE":"LARGE","MEAN_ELEMENT_THEORY":"SGP4","REV_AT_EPOCH":"9895","MEAN_MOTION_DDOT":"0.0000000000000","CLASSIFICATION_TYPE":"U","ELEMENT_SET_NO":"999","OBJECT_TYPE":"PAYLOAD","ECCENTRICITY":"0.00015770","NORAD_CAT_ID":"45692","COUNTRY_CODE":"US","ARG_OF_PERICENTER":"60.9747","TIME_SYSTEM":"UTC","DECAY_DATE":null,"EPHEMERIS_TYPE":"0","EPOCH":"2022-03-11T15:07:53.662080","SEMIMAJOR_AXIS":"6925.320","PERIAPSIS":"546.093","LAUNCH_DATE":"2020-06-04","MEAN_MOTION_DOT":"0.00007749","MEAN_MOTION":"15.06409370","TLE_LINE1":"1 45692U 20035AM  22070.63048220  .00007749  00000-0  53838-3 0  9999","MEAN_ANOMALY":"299.1400","FILE":"3355378","OBJECT_NAME":"STARLINK-1416","OBJECT_ID":"2020-035AM","APOAPSIS":"548.277","BSTAR":"0.00053838000000","TLE_LINE2":"2 45692  53.0537 126.6026 0001577  60.9747 299.1400 15.06409370 98958","PERIOD":"95.592","GP_ID":"198517722","CENTER_NAME":"EARTH","SITE":"AFETR","RA_OF_ASC_NODE":"126.6026","REF_FRAME":"TEME","INCLINATION":"53.0537"},{"PERIAPSIS":"546.004","SEMIMAJOR_AXIS":"6925.312","MEAN_MOTION_DOT":"0.00005749","LAUNCH_DATE":"2020-06-04","TLE_LINE1":"1 45693U 20035AN  22070.84794889  .00005749  00000-0  40440-3 0  9995","MEAN_MOTION":"15.06412069","OBJECT_ID":"2020-035AN","FILE":"3355378","OBJECT_NAME":"STARLINK-1417","MEAN_ANOMALY":"298.4685","GP_ID":"198517473","CENTER_NAME":"EARTH","TLE_LINE2":"2 45693  53.0533 125.6186 0001693  61.6475 298.4685 15.06412069 98985","PERIOD":"95.591","BSTAR":"0.00040440000000","APOAPSIS":"548.349","SITE":"AFETR","INCLINATION":"53.0533","RA_OF_ASC_NODE":"125.6186","REF_FRAME":"TEME","MEAN_ELEMENT_THEORY":"SGP4","RCS_SIZE":"LARGE","MEAN_MOTION_DDOT":"0.0000000000000","REV_AT_EPOCH":"9898","ELEMENT_SET_NO":"999","CLASSIFICATION_TYPE":"U","ECCENTRICITY":"0.00016930","OBJECT_TYPE":"PAYLOAD","TIME_SYSTEM":"UTC","ARG_OF_PERICENTER":"61.6475","COUNTRY_CODE":"US","NORAD_CAT_ID":"45693","DECAY_DATE":null,"EPOCH":"2022-03-11T20:21:02.784096","EPHEMERIS_TYPE":"0"},{"TLE_LINE1":"1 45694U 20035AP  22070.85531964  .00001135  00000-0  95095-4 0  9992","MEAN_MOTION":"15.06404802","MEAN_MOTION_DOT":"0.00001135","LAUNCH_DATE":"2020-06-04","PERIAPSIS":"546.130","SEMIMAJOR_AXIS":"6925.334","INCLINATION":"53.0546","REF_FRAME":"TEME","RA_OF_ASC_NODE":"125.5721","SITE":"AFETR","GP_ID":"198516721","CENTER_NAME":"EARTH","PERIOD":"95.592","TLE_LINE2":"2 45694  53.0546 125.5721 0001544  64.1602 295.9546 15.06404802 98983","BSTAR":"0.00009509500000","APOAPSIS":"548.268","OBJECT_ID":"2020-035AP","FILE":"3355378","OBJECT_NAME":"STARLINK-1419","MEAN_ANOMALY":"295.9546","ECCENTRICITY":"0.00015440","OBJECT_TYPE":"PAYLOAD","ELEMENT_SET_NO":"999","CLASSIFICATION_TYPE":"U","MEAN_MOTION_DDOT":"0.0000000000000","REV_AT_EPOCH":"9898","RCS_SIZE":"LARGE","MEAN_ELEMENT_THEORY":"SGP4","EPOCH":"2022-03-11T20:31:39.616896","EPHEMERIS_TYPE":"0","DECAY_DATE":null,"TIME_SYSTEM":"UTC","ARG_OF_PERICENTER":"64.1602","COUNTRY_CODE":"US","NORAD_CAT_ID":"45694"},{"PERIAPSIS":"545.886","SEMIMAJOR_AXIS":"6925.312","MEAN_MOTION_DOT":"0.00004136","LAUNCH_DATE":"2020-06-04","TLE_LINE1":"1 45695U 20035AQ  22070.78345763  .00004136  00000-0  29630-3 0  9990","MEAN_MOTION":"15.06411989","OBJECT_ID":"2020-035AQ","OBJECT_NAME":"STARLINK-1420","FILE":"3355378","MEAN_ANOMALY":"304.4570","GP_ID":"198516971","CENTER_NAME":"EARTH","TLE_LINE2":"2 45695  53.0528 105.8933 0001864  55.6595 304.4570 15.06411989 99260","PERIOD":"95.591","BSTAR":"0.00029630000000","APOAPSIS":"548.468","SITE":"AFETR","INCLINATION":"53.0528","RA_OF_ASC_NODE":"105.8933","REF_FRAME":"TEME","MEAN_ELEMENT_THEORY":"SGP4","RCS_SIZE":"LARGE","MEAN_MOTION_DDOT":"0.0000000000000","REV_AT_EPOCH":"9926","ELEMENT_SET_NO":"999","CLASSIFICATION_TYPE":"U","ECCENTRICITY":"0.00018640","OBJECT_TYPE":"PAYLOAD","TIME_SYSTEM":"UTC","ARG_OF_PERICENTER":"55.6595","COUNTRY_CODE":"US","NORAD_CAT_ID":"45695","DECAY_DATE":null,"EPOCH":"2022-03-11T18:48:10.739232","EPHEMERIS_TYPE":"0"},{"OBJECT_TYPE":"PAYLOAD","ECCENTRICITY":"0.00021170","CLASSIFICATION_TYPE":"U","ELEMENT_SET_NO":"999","REV_AT_EPOCH":"9898","MEAN_MOTION_DDOT":"0.0000000000000","MEAN_ELEMENT_THEORY":"SGP4","RCS_SIZE":"LARGE","EPHEMERIS_TYPE":"0","EPOCH":"2022-03-11T20:36:58.292928","DECAY_DATE":null,"NORAD_CAT_ID":"45696","ARG_OF_PERICENTER":"48.0102","TIME_SYSTEM":"UTC","COUNTRY_CODE":"US","MEAN_MOTION":"15.06404437","TLE_LINE1":"1 45696U 20035AR  22070.85900802  .00002368  00000-0  17781-3 0  9999","MEAN_MOTION_DOT":"0.00002368","LAUNCH_DATE":"2020-06-04","SEMIMAJOR_AXIS":"6925.335","PERIAPSIS":"545.734","INCLINATION":"53.0533","RA_OF_ASC_NODE":"125.5583","REF_FRAME":"TEME","SITE":"AFETR","APOAPSIS":"548.666","CENTER_NAME":"EARTH","GP_ID":"198517223","TLE_LINE2":"2 45696  53.0533 125.5583 0002117  48.0102 312.1067 15.06404437 98984","BSTAR":"0.00017781000000","PERIOD":"95.592","OBJECT_NAME":"STARLINK-1422","FILE":"3355378","MEAN_ANOMALY":"312.1067","OBJECT_ID":"2020-035AR"},{"ELEMENT_SET_NO":"999","CLASSIFICATION_TYPE":"U","ECCENTRICITY":"0.00013670","OBJECT_TYPE":"PAYLOAD","RCS_SIZE":"LARGE","MEAN_ELEMENT_THEORY":"SGP4","MEAN_MOTION_DDOT":"0.0000000000000","REV_AT_EPOCH":"9920","DECAY_DATE":null,"EPOCH":"2022-03-11T08:53:41.980128","EPHEMERIS_TYPE":"0","COUNTRY_CODE":"US","TIME_SYSTEM":"UTC","ARG_OF_PERICENTER":"60.2508","NORAD_CAT_ID":"45697","MEAN_MOTION":"15.06393587","TLE_LINE1":"1 45697U 20035AS  22070.37062477  .00001389  00000-0  11211-3 0  9998","SEMIMAJOR_AXIS":"6925.368","PERIAPSIS":"546.287","LAUNCH_DATE":"2020-06-04","MEAN_MOTION_DOT":"0.00001389","SITE":"AFETR","RA_OF_ASC_NODE":"107.7589","REF_FRAME":"TEME","INCLINATION":"53.0544","OBJECT_ID":"2020-035AS","MEAN_ANOMALY":"299.8617","FILE":"3354959","OBJECT_NAME":"STARLINK-1351","TLE_LINE2":"2 45697  53.0544 107.7589 0001367  60.2508 299.8617 15.06393587 99208","BSTAR":"0.00011211000000","PERIOD":"95.593","GP_ID":"198480396","CENTER_NAME":"EARTH","APOAPSIS":"548.180"},{"PERIAPSIS":"546.046","SEMIMAJOR_AXIS":"6925.321","LAUNCH_DATE":"2020-06-04","MEAN_MOTION_DOT":"0.00001961","TLE_LINE1":"1 45698U 20035AT  22070.82399091  .00001961  00000-0  15046-3 0  9990","MEAN_MOTION":"15.06408881","MEAN_ANOMALY":"304.7135","FILE":"3355378","OBJECT_NAME":"STARLINK-1370","OBJECT_ID":"2020-035AT","APOAPSIS":"548.327","BSTAR":"0.00015046000000","TLE_LINE2":"2 45698  53.0539 105.7277 0001647  55.4009 304.7135 15.06408881 99270","PERIOD":"95.592","CENTER_NAME":"EARTH","GP_ID":"198516222","SITE":"AFETR","RA_OF_ASC_NODE":"105.7277","REF_FRAME":"TEME","INCLINATION":"53.0539","RCS_SIZE":"LARGE","MEAN_ELEMENT_THEORY":"SGP4","REV_AT_EPOCH":"9927","MEAN_MOTION_DDOT":"0.0000000000000","CLASSIFICATION_TYPE":"U","ELEMENT_SET_NO":"999","OBJECT_TYPE":"PAYLOAD","ECCENTRICITY":"0.00016470","NORAD_CAT_ID":"45698","COUNTRY_CODE":"US","ARG_OF_PERICENTER":"55.4009","TIME_SYSTEM":"UTC","DECAY_DATE":null,"EPHEMERIS_TYPE":"0","EPOCH":"2022-03-11T19:46:32.814624"},{"LAUNCH_DATE":"2020-06-04","MEAN_MOTION_DOT":"0.00002274","PERIAPSIS":"546.072","SEMIMAJOR_AXIS":"6925.332","MEAN_MOTION":"15.06405491","TLE_LINE1":"1 45699U 20035AU  22070.81293456  .00002274  00000-0  17146-3 0  9999","APOAPSIS":"548.321","TLE_LINE2":"2 45699  53.0554 105.7732 0001624  55.6164 304.4979 15.06405491 99269","PERIOD":"95.592","BSTAR":"0.00017146000000","CENTER_NAME":"EARTH","GP_ID":"198516472","MEAN_ANOMALY":"304.4979","OBJECT_NAME":"STARLINK-1398","FILE":"3355378","OBJECT_ID":"2020-035AU","REF_FRAME":"TEME","RA_OF_ASC_NODE":"105.7732","INCLINATION":"53.0554","SITE":"AFETR","REV_AT_EPOCH":"9926","MEAN_MOTION_DDOT":"0.0000000000000","MEAN_ELEMENT_THEORY":"SGP4","RCS_SIZE":"LARGE","OBJECT_TYPE":"PAYLOAD","ECCENTRICITY":"0.00016240","CLASSIFICATION_TYPE":"U","ELEMENT_SET_NO":"999","NORAD_CAT_ID":"45699","COUNTRY_CODE":"US","ARG_OF_PERICENTER":"55.6164","TIME_SYSTEM":"UTC","EPHEMERIS_TYPE":"0","EPOCH":"2022-03-11T19:30:37.545984","DECAY_DATE":null}];
